NORAD_CAT_ID,OBJECT_NAME,OBJECT_TYPE,EPOCH,MEAN_MOTION,ECCENTRICITY,INCLINATION,RA_OF_ASC_NODE,ARG_OF_PERICENTER,MEAN_ANOMALY,BSTAR,MEAN_MOTION_DOT,MEAN_MOTION_DDOT,TLE_LINE0,TLE_LINE1,TLE_LINE2,SEMIMAJOR_AXIS,PERIOD,APOGEE,PERIGEE,DECAYED
49178.0,STARLINK-3086,PAYLOAD,2023-04-25 06:50:03,14.98346203,0.00028,70.0012,60.3706,254.1694,105.9156,0.00020463,2.35e-05,0.0,0 STARLINK-3086,1 49178U 21082BA  23115.28475731  .00002350  00000-0  20463-3 0  9999,2 49178  70.0012  60.3706 0002800 254.1694 105.9156 14.98346203 89941,6950.143,96.106,573.954,570.062,0.0
49178.0,STARLINK-3086,PAYLOAD,2023-04-26 06:52:07,14.98314968,0.0002874,70.0005,57.8436,260.661,99.4224,-0.00031523,-3.851e-05,0.0,0 STARLINK-3086,1 49178U 21082BA  23116.28619472 -.00003851  00000-0 -31523-3 0  9990,2 49178  70.0005  57.8436 0002874 260.6610  99.4224 14.98314968 90099,6950.239,96.108,574.102,570.107,0.0
49178.0,STARLINK-3086,PAYLOAD,2023-04-27 03:41:52,14.98316962,0.0002577,70.0014,55.6549,283.968,76.1192,-0.00015426,-1.932e-05,0.0,0 STARLINK-3086,1 49178U 21082BA  23117.15407733 -.00001932  00000-0 -15426-3 0  9994,2 49178  70.0014  55.6549 0002577 283.9680  76.1192 14.98316962 90222,6950.233,96.108,573.889,570.307,0.0
49178.0,STARLINK-3086,PAYLOAD,2023-04-27 05:17:59,14.98318251,0.0002966,70.0017,55.4867,260.2985,99.7839,-0.00014084,-1.773e-05,0.0,0 STARLINK-3086,1 49178U 21082BA  23117.22083321 -.00001773  00000-0 -14084-3 0  9997,2 49178  70.0017  55.4867 0002966 260.2985  99.7839 14.98318251 90237,6950.229,96.108,574.156,570.033,0.0
49178.0,STARLINK-3086,PAYLOAD,2023-04-28 05:20:00,14.98325558,0.000267,70.0014,52.9626,260.1232,99.9626,0.0003756,4.391e-05,0.0,0 STARLINK-3086,1 49178U 21082BA  23118.22222606  .00004391  00000-0  37560-3 0  9990,2 49178  70.0014  52.9626 0002670 260.1232  99.9626 14.98325558 90385,6950.207,96.107,573.927,570.216,0.0
49178.0,STARLINK-3086,PAYLOAD,2023-04-29 03:45:52,14.98352298,0.000262,70.0014,50.606,263.9989,96.0871,-5.1552e-05,-7.08e-06,0.0,0 STARLINK-3086,1 49178U 21082BA  23119.15686121 -.00000708  00000-0 -51552-4 0  9997,2 49178  70.0014  50.6060 0002620 263.9989  96.0871 14.98352298 90524,6950.124,96.106,573.81,570.168,0.0
49178.0,STARLINK-3086,PAYLOAD,2023-04-29 05:22:00,14.98342483,0.0002688,70.0012,50.4375,260.5994,99.4862,0.0001279,1.434e-05,0.0,0 STARLINK-3086,1 49178U 21082BA  23119.22362101  .00001434  00000-0  12790-3 0  9999,2 49178  70.0012  50.4375 0002688 260.5994  99.4862 14.98342483 90535,6950.154,96.106,573.887,570.151,0.0
49178.0,STARLINK-3086,PAYLOAD,2023-04-29 18:11:05,14.98343451,0.0002648,70.0016,49.0914,260.1437,99.9423,-8.1699e-06,-1.9e-06,0.0,0 STARLINK-3086,1 49178U 21082BA  23119.75770037 -.00000190  00000-0 -81699-5 0  9994,2 49178  70.0016  49.0914 0002648 260.1437  99.9423 14.98343451 90619,6950.151,96.106,573.857,570.176,0.0
49178.0,STARLINK-3086,PAYLOAD,2023-04-30 05:24:01,14.98341344,0.0002673,70.0015,47.9128,260.9877,99.098,-3.7202e-05,-5.37e-06,0.0,0 STARLINK-3086,1 49178U 21082BA  23120.22501851 -.00000537  00000-0 -37202-4 0  9999,2 49178  70.0015  47.9128 0002673 260.9877  99.0980 14.98341344 90681,6950.158,96.106,573.881,570.165,0.0
49178.0,STARLINK-3086,PAYLOAD,2023-04-30 21:25:22,14.98333202,0.0002558,70.0018,46.2293,261.8512,98.2357,-9.5698e-05,-1.235e-05,0.0,0 STARLINK-3086,1 49178U 21082BA  23120.89262228 -.00001235  00000-0 -95698-4 0  9993,2 49178  70.0018  46.2293 0002558 261.8512  98.2357 14.98333202 90781,6950.183,96.107,573.826,570.27,0.0
49178.0,STARLINK-3086,PAYLOAD,2023-05-01 05:26:02,14.98331305,0.0002707,70.0015,45.3873,260.4396,99.6457,-3.878e-05,-5.56e-06,0.0,0 STARLINK-3086,1 49178U 21082BA  23121.22642163 -.00000556  00000-0 -38780-4 0  9995,2 49178  70.0015  45.3873 0002707 260.4396  99.6457 14.98331305 90837,6950.189,96.107,573.935,570.172,0.0
49178.0,STARLINK-3086,PAYLOAD,2023-05-01 21:27:23,14.983327,0.0002995,70.0014,43.704,262.8822,97.1996,-1.147e-05,-2.3e-06,0.0,0 STARLINK-3086,1 49178U 21082BA  23121.89401816 -.00000230  00000-0 -11470-4 0  9992,2 49178  70.0014  43.7040 0002995 262.8822  97.1996 14.98332700 90935,6950.185,96.107,574.131,569.968,0.0
49178.0,STARLINK-3086,PAYLOAD,2023-05-01 23:03:31,14.98331665,0.0002829,70.0013,43.5359,261.6177,98.4662,1.7502e-05,1.16e-06,0.0,0 STARLINK-3086,1 49178U 21082BA  23121.96077814  .00000116  00000-0  17502-4 0  9990,2 49178  70.0013  43.5359 0002829 261.6177  98.4662 14.98331665 90945,6950.188,96.107,574.019,570.087,0.0
49178.0,STARLINK-3086,PAYLOAD,2023-05-02 05:28:03,14.98333353,0.000254,70.0019,42.8628,259.3856,100.7017,4.6703e-05,4.64e-06,0.0,0 STARLINK-3086,1 49178U 21082BA  23122.22781633  .00000464  00000-0  46703-4 0  9992,2 49178  70.0019  42.8628 0002540 259.3856 100.7017 14.98333353 90981,6950.183,96.107,573.813,570.282,0.0
49178.0,STARLINK-3086,PAYLOAD,2023-05-02 21:29:23,14.98358486,0.0002686,70.0018,41.179,264.3133,95.772,-0.0003768,-4.589e-05,0.0,0 STARLINK-3086,1 49178U 21082BA  23122.89541147 -.00004589  00000-0 -37680-3 0  9996,2 49178  70.0018  41.1790 0002686 264.3133  95.7720 14.98358486 91087,6950.105,96.105,573.837,570.103,0.0
49178.0,STARLINK-3086,PAYLOAD,2023-05-03 03:53:56,14.98333633,0.0002909,70.002,40.5061,269.9185,90.1641,3.648e-05,3.42e-06,0.0,0 STARLINK-3086,1 49178U 21082BA  23123.16245505  .00000342  00000-0  36480-4 0  9995,2 49178  70.0020  40.5061 0002909 269.9185  90.1641 14.98333633 91123,6950.182,96.107,574.068,570.025,0.0
49178.0,STARLINK-3086,PAYLOAD,2023-05-03 21:31:25,14.98329465,0.0002511,70.002,38.6548,261.3736,98.7139,-1.9641e-05,-3.27e-06,0.0,0 STARLINK-3086,1 49178U 21082BA  23123.89681885 -.00000327  00000-0 -19641-4 0  9995,2 49178  70.0020  38.6548 0002511 261.3736  98.7139 14.98329465 91234,6950.195,96.107,573.805,570.314,0.0
49178.0,STARLINK-3086,PAYLOAD,2023-05-04 05:32:05,14.98330577,0.0002484,70.0019,37.8136,265.8854,94.2021,-1.5473e-05,-2.78e-06,0.0,0 STARLINK-3086,1 49178U 21082BA  23124.23061869 -.00000278  00000-0 -15473-4 0  9992,2 49178  70.0019  37.8136 0002484 265.8854  94.2021 14.98330577 91287,6950.191,96.107,573.783,570.33,0.0
49178.0,STARLINK-3086,PAYLOAD,2023-05-04 11:56:37,14.98331548,0.0002388,70.0022,37.1396,269.3938,90.6947,8.8729e-07,-8.2e-07,0.0,0 STARLINK-3086,1 49178U 21082BA  23124.49765803 -.00000082  00000-0  88729-6 0  9997,2 49178  70.0022  37.1396 0002388 269.3938  90.6947 14.98331548 91328,6950.188,96.107,573.713,570.393,0.0
49178.0,STARLINK-3086,PAYLOAD,2023-05-04 21:33:25,14.98332957,0.0002776,70.0011,36.1291,269.003,91.0811,2.5064e-05,2.06e-06,0.0,0 STARLINK-3086,1 49178U 21082BA  23124.89821459  .00000206  00000-0  25064-4 0  9999,2 49178  70.0011  36.1291 0002776 269.0030  91.0811 14.98332957 91386,6950.184,96.107,573.978,570.119,0.0
49178.0,STARLINK-3086,PAYLOAD,2023-05-05 03:57:57,14.98336189,0.0002791,70.0012,35.4557,267.8442,92.2397,5.1613e-05,5.23e-06,0.0,0 STARLINK-3086,1 49178U 21082BA  23125.16525072  .00000523  00000-0  51613-4 0  9993,2 49178  70.0012  35.4557 0002791 267.8442  92.2397 14.98336189 91422,6950.174,96.107,573.979,570.099,0.0
49178.0,STARLINK-3086,PAYLOAD,2023-05-05 21:35:27,14.98325863,0.0002657,70.0013,33.6042,265.6732,94.4124,2.1964e-05,1.69e-06,0.0,0 STARLINK-3086,1 49178U 21082BA  23125.89961832  .00000169  00000-0  21964-4 0  9993,2 49178  70.0013  33.6042 0002657 265.6732  94.4124 14.98325863 91532,6950.206,96.107,573.917,570.224,0.0
49178.0,STARLINK-3086,PAYLOAD,2023-05-06 00:47:43,14.98326082,0.0002657,70.0013,33.2675,266.2284,93.8571,7.5956e-05,8.13e-06,0.0,0 STARLINK-3086,1 49178U 21082BA  23126.03313689  .00000813  00000-0  75956-4 0  9997,2 49178  70.0013  33.2675 0002657 266.2284  93.8571 14.98326082 91554,6950.205,96.107,573.917,570.223,0.0
49178.0,STARLINK-3086,PAYLOAD,2023-05-06 03:59:59,14.98327209,0.000265,70.0013,32.9309,266.2363,93.8493,8.7602e-05,9.52e-06,0.0,0 STARLINK-3086,1 49178U 21082BA  23126.16665659  .00000952  00000-0  87602-4 0  9993,2 49178  70.0013  32.9309 0002650 266.2363  93.8493 14.98327209 91572,6950.202,96.107,573.908,570.225,0.0
49178.0,STARLINK-3086,PAYLOAD,2023-05-07 04:01:59,14.98341881,0.0002749,70.0012,30.406,269.5996,90.4848,9.4579e-05,1.036e-05,0.0,0 STARLINK-3086,1 49178U 21082BA  23127.16804455  .00001036  00000-0  94579-4 0  9998,2 49178  70.0012  30.4060 0002749 269.5996  90.4848 14.98341881 91721,6950.156,96.106,573.932,570.111,0.0
49178.0,STARLINK-3086,PAYLOAD,2023-05-07 20:03:20,14.98324842,0.0002586,70.0013,28.7239,248.0721,112.0163,-2.8442e-05,-4.32e-06,0.0,0 STARLINK-3086,1 49178U 21082BA  23127.83565834 -.00000432  00000-0 -28442-4 0  9994,2 49178  70.0013  28.7239 0002586 248.0721 112.0163 14.98324842 91827,6950.209,96.107,573.871,570.277,0.0
49178.0,STARLINK-3086,PAYLOAD,2023-05-07 21:39:29,14.98320677,0.0002565,70.0026,28.5557,247.4343,112.6545,2.0065e-05,1.46e-06,0.0,0 STARLINK-3086,1 49178U 21082BA  23127.90241979  .00000146  00000-0  20065-4 0  9996,2 49178  70.0026  28.5557 0002565 247.4343 112.6545 14.98320677 91835,6950.222,96.108,573.869,570.304,0.0
49178.0,STARLINK-3086,PAYLOAD,2023-05-08 20:05:21,14.9833805,0.0003263,70.0003,26.1981,268.5194,91.5592,-3.6819e-05,-5.32e-06,0.0,0 STARLINK-3086,1 49178U 21082BA  23128.83705259 -.00000532  00000-0 -36819-4 0  9990,2 49178  70.0003  26.1981 0003263 268.5194  91.5592 14.98338050 91975,6950.168,96.106,574.301,569.765,0.0
49178.0,STARLINK-3086,PAYLOAD,2023-05-08 21:41:29,14.98338183,0.0003205,70.0004,26.0298,267.5086,92.5706,-2.4174e-05,-3.82e-06,0.0,0 STARLINK-3086,1 49178U 21082BA  23128.90381192 -.00000382  00000-0 -24174-4 0  9998,2 49178  70.0004  26.0298 0003205 267.5086  92.5706 14.98338183 91987,6950.168,96.106,574.26,569.805,0.0
49178.0,STARLINK-3086,PAYLOAD,2023-05-09 02:29:53,14.9834308,0.0003057,70.0007,25.5251,268.8924,91.1885,5.5776e-05,5.73e-06,0.0,0 STARLINK-3086,1 49178U 21082BA  23129.10408588  .00000573  00000-0  55776-4 0  9992,2 49178  70.0007  25.5251 0003057 268.8924  91.1885 14.98343080 92013,6950.152,96.106,574.142,569.893,0.0
